NAVSTAR 77 (USA 289)    
1 43873U 18109A   24123.26832389  .00000092  00000+0  00000+0 0  9996
2 43873  55.2797 122.8418 0028781 195.9917 199.0212  2.00553672 39517
